ONEWEB-0395             
1 50475U 21132G   26200.44056344 -.00000463  00000+0 -13418-2 0  9993
2 50475  87.8888  14.6437 0001961  85.1968 274.9383 13.11418513219948
ONEWEB-0396             
1 50476U 21132H   26200.79414306  .00000020  00000+0  17773-4 0  9995
2 50476  87.9202 328.9726 0001720  97.1583 262.9745 13.18686520225938
ONEWEB-0397             
1 50477U 21132J   26200.80931231 -.00000025  00000+0 -96401-4 0  9991
2 50477  87.9204 328.9694 0001637 101.1204 259.0112 13.18687195225910
ONEWEB-0398             
1 50478U 21132K   26200.71355711  .00000422  00000+0  11545-2 0  9998
2 50478  87.8895  14.5826 0002126  88.2749 271.8622 13.11416087219873
ONEWEB-0399             
1 50479U 21132L   26200.47110738  .00000558  00000+0  15399-2 0  9991
2 50479  87.8892  14.6422 0001452  81.0424 279.0869 13.11417573219836
ONEWEB-0400             
1 50480U 21132M   26200.78739551  .00000042  00000+0  74000-4 0  9991
2 50480  87.9200 328.9637 0002037  96.7504 263.3860 13.18685461225905
ONEWEB-0401             
1 50481U 21132N   26200.83296692 -.00005785  00000+0 -14725-1 0  9998
2 50481  87.9206 328.9523 0001799 108.1132 252.0196 13.18642793225914
ONEWEB-0402             
1 50482U 21132P   26200.79582012 -.00000105  00000+0 -29927-3 0  9991
2 50482  87.9203 328.9480 0001678 112.6891 247.4418 13.18684782225933
ONEWEB-0403             
1 50483U 21132Q   26200.82112156 -.00000015  00000+0 -70234-4 0  9992
2 50483  87.9202 328.9676 0001794  95.4559 264.6778 13.18686852225893
ONEWEB-0404             
1 50484U 21132R   26200.75762947 -.00000177  00000+0 -53472-3 0  9997
2 50484  87.8891  14.5818 0001744  81.1028 279.0297 13.11418411219965
ONEWEB-0405             
1 50485U 21132S   26200.75873642  .00000062  00000+0  12383-3 0  9990
2 50485  87.9207 328.9652 0002344  95.0004 265.1395 13.18685336226288
ONEWEB-0406             
1 50486U 21132T   26200.82617331  .00000056  00000+0  10939-3 0  9998
2 50486  87.9201 328.9665 0001612  83.6652 276.4664 13.18687016225927
ONEWEB-0407             
1 50487U 21132U   26200.81942192  .00000062  00000+0  12494-3 0  9999
2 50487  87.9203 328.9610 0002019 103.4840 256.6517 13.18684480225864
ONEWEB-0409             
1 50488U 21132V   26200.75593558 -.00000213  00000+0 -63646-3 0  9996
2 50488  87.8895  14.5716 0001848  81.9933 278.1405 13.11418866219851
ONEWEB-0412             
1 50489U 21132W   26200.80762810  .00000029  00000+0  41350-4 0  9994
2 50489  87.9201 328.9710 0001731 107.5761 252.5560 13.18686620225953
ONEWEB-0413             
1 50490U 21132X   26200.81268252 -.00000161  00000+0 -44095-3 0  9995
2 50490  87.9192 328.9661 0001912 108.6511 251.4829 13.18685896225898
ONEWEB-0414             
1 50491U 21132Y   26200.79750955  .00000005  00000+0 -20099-4 0  9994
2 50491  87.9204 328.9544 0001711 100.9091 259.2234 13.18686390225928
ONEWEB-0417             
1 50492U 21132Z   26200.80593887 -.00000199  00000+0 -53743-3 0  9992
2 50492  87.9194 328.9696 0001813  92.5514 267.5826 13.18686062225907
ONEWEB-0418             
1 50493U 21132AA  26200.81592097 -.00000058  00000+0 -18046-3 0  9997
2 50493  87.9197 328.9689 0001827  91.0651 269.0690 13.18685918225965
ONEWEB-0419             
1 50494U 21132AB  26200.75913961  .00000025  00000+0  30486-4 0  9993
2 50494  87.9204 328.9809 0002047  92.7739 267.3627 13.18666055225871
ONEWEB-0420             
1 50495U 21132AC  26200.79919134  .00000022  00000+0  23307-4 0  9997
2 50495  87.9195 328.9732 0002045 103.5318 256.6041 13.18684161225877
ONEWEB-0421             
1 50496U 21132AD  26200.79246583  .00000011  00000+0 -57748-5 0  9995
2 50496  87.9195 328.9729 0001547 104.6546 255.4758 13.18686180225915
ONEWEB-0424             
1 50497U 21132AE  26200.82955096 -.00000025  00000+0 -95131-4 0  9999
2 50497  87.9203 328.9653 0002156  92.2206 267.9173 13.18687045225947
ONEWEB-0426             
1 50498U 21132AF  26200.78823390 -.00001703  00000+0 -43528-2 0  9991
2 50498  87.9203 328.9645 0001197  87.6823 272.4446 13.18680483225882
ONEWEB-0427             
1 50499U 21132AG  26200.82786616  .00000016  00000+0  68877-5 0  9997
2 50499  87.9203 328.9460 0001797  93.3630 266.7707 13.18686821225916
ONEWEB-0429             
1 50500U 21132AH  26200.81436439 -.00000110  00000+0 -31294-3 0  9992
2 50500  87.9197 328.9702 0001970 103.6019 256.5333 13.18685170225883
ONEWEB-0430             
1 50501U 21132AJ  26200.80255811 -.00000327  00000+0 -86346-3 0  9993
2 50501  87.9195 328.9715 0002163 103.2444 256.8930 13.18685026225920
ONEWEB-0432             
1 50502U 21132AK  26200.78557874  .00000017  00000+0  10542-4 0  9995
2 50502  87.9200 328.9616 0002352  96.2087 263.9313 13.18686101225875
ONEWEB-0440             
1 50503U 21132AL  26200.82280058 -.00000133  00000+0 -36976-3 0  9997
2 50503  87.9205 328.9657 0001790 109.4837 250.6489 13.18685448225871
ONEWEB-0450             
1 50504U 21132AM  26200.81619448  .00000037  00000+0  61569-4 0  9994
2 50504  87.9196 328.9688 0002047 104.4370 255.6990 13.18686899225905
