OBJECT_NAME,OBJECT_ID,EPOCH,MEAN_MOTION,ECCENTRICITY,INCLINATION,RA_OF_ASC_NODE,ARG_OF_PERICENTER,MEAN_ANOMALY,EPHEMERIS_TYPE,CLASSIFICATION_TYPE,NORAD_CAT_ID,ELEMENT_SET_NO,REV_AT_EPOCH,BSTAR,MEAN_MOTION_DOT,MEAN_MOTION_DDOT
ONEWEB-0395,2021-132G,2026-07-19T10:34:24.681216,13.11418513,.0001961,87.8888,14.6437,85.1968,274.9383,0,U,50475,999,21994,-.13417873E-2,-.463E-5,0
ONEWEB-0396,2021-132H,2026-07-19T19:03:33.960384,13.18686520,.000172,87.9202,328.9726,97.1583,262.9745,0,U,50476,999,22593,.17773E-4,.2E-6,0
ONEWEB-0397,2021-132J,2026-07-19T19:25:24.583584,13.18687195,.0001637,87.9204,328.9694,101.1204,259.0112,0,U,50477,999,22591,-.96401E-4,-.25E-6,0
ONEWEB-0398,2021-132K,2026-07-19T17:07:31.334304,13.11416087,.0002126,87.8895,14.5826,88.2749,271.8622,0,U,50478,999,21987,.11545E-2,.422E-5,0
ONEWEB-0399,2021-132L,2026-07-19T11:18:23.677632,13.11417573,.00014522,87.8892,14.6422,81.0424,279.0869,0,U,50479,999,21983,.15399404E-2,.558E-5,0
ONEWEB-0400,2021-132M,2026-07-19T18:53:50.972064,13.18685461,.0002037,87.9200,328.9637,96.7504,263.3860,0,U,50480,999,22590,.74E-4,.42E-6,0
ONEWEB-0401,2021-132N,2026-07-19T19:59:28.341888,13.18642793,.0001799,87.9206,328.9523,108.1132,252.0196,0,U,50481,999,22591,-.14725E-1,-.5785E-4,0
ONEWEB-0402,2021-132P,2026-07-19T19:05:58.858368,13.18684782,.0001678,87.9203,328.9480,112.6891,247.4418,0,U,50482,999,22593,-.29927E-3,-.105E-5,0
ONEWEB-0403,2021-132Q,2026-07-19T19:42:24.902784,13.18686852,.0001794,87.9202,328.9676,95.4559,264.6778,0,U,50483,999,22589,-.70234E-4,-.15E-6,0
ONEWEB-0404,2021-132R,2026-07-19T18:10:59.186208,13.11418411,.0001744,87.8891,14.5818,81.1028,279.0297,0,U,50484,999,21996,-.53472E-3,-.177E-5,0
ONEWEB-0405,2021-132S,2026-07-19T18:12:34.826688,13.18685336,.0002344,87.9207,328.9652,95.0004,265.1395,0,U,50485,999,22628,.12383E-3,.62E-6,0
ONEWEB-0406,2021-132T,2026-07-19T19:49:41.373984,13.18687016,.0001612,87.9201,328.9665,83.6652,276.4664,0,U,50486,999,22592,.10939E-3,.56E-6,0
ONEWEB-0407,2021-132U,2026-07-19T19:39:58.053888,13.18684480,.0002019,87.9203,328.9610,103.4840,256.6517,0,U,50487,999,22586,.12494E-3,.62E-6,0
ONEWEB-0409,2021-132V,2026-07-19T18:08:32.834112,13.11418866,.0001848,87.8895,14.5716,81.9933,278.1405,0,U,50488,999,21985,-.63646E-3,-.213E-5,0
ONEWEB-0412,2021-132W,2026-07-19T19:22:59.067840,13.18686620,.0001731,87.9201,328.9710,107.5761,252.5560,0,U,50489,999,22595,.4135E-4,.29E-6,0
ONEWEB-0413,2021-132X,2026-07-19T19:30:15.769728,13.18685896,.0001912,87.9192,328.9661,108.6511,251.4829,0,U,50490,999,22589,-.44095E-3,-.161E-5,0
ONEWEB-0414,2021-132Y,2026-07-19T19:08:24.825120,13.18686390,.0001711,87.9204,328.9544,100.9091,259.2234,0,U,50491,999,22592,-.20099E-4,.5E-7,0
ONEWEB-0417,2021-132Z,2026-07-19T19:20:33.118368,13.18686062,.0001813,87.9194,328.9696,92.5514,267.5826,0,U,50492,999,22590,-.53743E-3,-.199E-5,0
ONEWEB-0418,2021-132AA,2026-07-19T19:34:55.571808,13.18685918,.0001827,87.9197,328.9689,91.0651,269.0690,0,U,50493,999,22596,-.18046E-3,-.58E-6,0
ONEWEB-0419,2021-132AB,2026-07-19T18:13:09.662304,13.18666055,.0002047,87.9204,328.9809,92.7739,267.3627,0,U,50494,999,22587,.30486E-4,.25E-6,0
ONEWEB-0420,2021-132AC,2026-07-19T19:10:50.131776,13.18684161,.0002045,87.9195,328.9732,103.5318,256.6041,0,U,50495,999,22587,.23307E-4,.22E-6,0
ONEWEB-0421,2021-132AD,2026-07-19T19:01:09.047712,13.18686180,.0001547,87.9195,328.9729,104.6546,255.4758,0,U,50496,999,22591,-.57748E-5,.11E-6,0
ONEWEB-0424,2021-132AE,2026-07-19T19:54:33.202944,13.18687045,.0002156,87.9203,328.9653,92.2206,267.9173,0,U,50497,999,22594,-.95131E-4,-.25E-6,0
ONEWEB-0426,2021-132AF,2026-07-19T18:55:03.408960,13.18680483,.0001197,87.9203,328.9645,87.6823,272.4446,0,U,50498,999,22588,-.43528E-2,-.1703E-4,0
ONEWEB-0427,2021-132AG,2026-07-19T19:52:07.636224,13.18686821,.0001797,87.9203,328.9460,93.3630,266.7707,0,U,50499,999,22591,.68877E-5,.16E-6,0
ONEWEB-0429,2021-132AH,2026-07-19T19:32:41.083296,13.18685170,.000197,87.9197,328.9702,103.6019,256.5333,0,U,50500,999,22588,-.31294E-3,-.11E-5,0
ONEWEB-0430,2021-132AJ,2026-07-19T19:15:41.020704,13.18685026,.0002163,87.9195,328.9715,103.2444,256.8930,0,U,50501,999,22592,-.86346E-3,-.327E-5,0
ONEWEB-0432,2021-132AK,2026-07-19T18:51:14.003136,13.18686101,.0002352,87.9200,328.9616,96.2087,263.9313,0,U,50502,999,22587,.10542E-4,.17E-6,0
ONEWEB-0440,2021-132AL,2026-07-19T19:44:49.970112,13.18685448,.000179,87.9205,328.9657,109.4837,250.6489,0,U,50503,999,22587,-.36976E-3,-.133E-5,0
ONEWEB-0450,2021-132AM,2026-07-19T19:35:19.203072,13.18686899,.0002047,87.9196,328.9688,104.4370,255.6990,0,U,50504,999,22590,.61569E-4,.37E-6,0
